IRIDIUM 155             
1 43573U 18061E   24223.40298986  .00000039  00000+0  67447-5 0  9991
2 43573  86.4012 339.1003 0002017  87.9844 272.1583 14.34216433316496
IRIDIUM 154             
1 43574U 18061F   24223.87233744  .00000039  00000+0  69278-5 0  9998
2 43574  86.4018 339.0048 0002349  98.6823 261.4639 14.34216505316612
IRIDIUM 163             
1 43575U 18061G   24223.36491980  .00000786  00000+0  27352-3 0  9995
2 43575  86.4014 339.1535 0002257  95.5616 264.5837 14.34225870316513
IRIDIUM 156             
1 43576U 18061H   24223.40933183  .00000033  00000+0  48845-5 0  9994
2 43576  86.4013 339.1412 0001952  94.0385 266.1034 14.34216269316514
IRIDIUM 164             
1 43577U 18061J   24223.39030570  .00000927  00000+0  32384-3 0  9992
2 43577  86.4016 339.1790 0002005 102.6335 257.5085 14.34220409316553
IRIDIUM 159             
1 43578U 18061K   24223.35859049  .00000778  00000+0  27064-3 0  9992
2 43578  86.4012 339.1433 0002238  98.3571 261.7879 14.34219089316511
IRIDIUM 180             
1 43922U 19002A   24223.56739401  .00000599  00000+0  20694-3 0  9996
2 43922  86.3937 275.9257 0002324  96.9140 263.2320 14.34220009292157
IRIDIUM 176             
1 43923U 19002B   24223.55998074  .00002740  00000+0  43083-3 0  9996
2 43923  86.6064 275.9468 0002299  99.9321 260.2156 14.72231173299844
IRIDIUM 168             
1 43924U 19002C   24223.56105219 -.00000083  00000+0 -36756-4 0  9999
2 43924  86.3940 275.9862 0002097  97.0844 263.0591 14.34217731292139
IRIDIUM 173             
1 43925U 19002D   24223.54836636  .00000570  00000+0  19663-3 0  9998
2 43925  86.3935 275.9083 0002259  95.0573 265.0881 14.34220050292116
IRIDIUM 169             
1 43926U 19002E   24223.23968156  .00000976  00000+0  31248-3 0  9991
2 43926  86.4240 307.6748 0003941  76.3271 283.8366 14.38621021293040
IRIDIUM 172             
1 43927U 19002F   24223.61179235  .00000369  00000+0  12474-3 0  9992
2 43927  86.3937 275.8879 0002154  92.8517 267.2925 14.34217400292139
IRIDIUM 175             
1 43928U 19002G   24223.55442386  .00000970  00000+0  15005-3 0  9997
2 43928  86.1472 246.0154 0002501  88.5671 271.5832 14.72212594299837
IRIDIUM 171             
1 43929U 19002H   24223.59276363  .00000692  00000+0  23991-3 0  9996
2 43929  86.3946 276.1275 0002009  94.6868 265.4558 14.34219630292121
IRIDIUM 170             
1 43930U 19002J   24223.56617454  .00002705  00000+0  42515-3 0  9995
2 43930  86.6064 275.9492 0002297  94.6306 265.5174 14.72231023299855
IRIDIUM 167             
1 43931U 19002K   24223.58643584  .00000690  00000+0  23942-3 0  9995
2 43931  86.3938 275.9150 0002124  92.1906 267.9533 14.34221407292123
IRIDIUM 181             
1 56726U 23068S   24223.38195393  .00001141  00000+0  33134-3 0  9992
2 56726  86.8677 332.3747 0002125  88.6148 271.5296 14.43578678 64953
IRIDIUM 177             
1 56727U 23068T   24223.50931139  .00003938  00000+0  51474-3 0  9996
2 56727  86.1960 289.5707 0002118  92.2344 267.9120 14.80226492 66415
IRIDIUM 174             
1 56728U 23068U   24223.57149470  .00003922  00000+0  51258-3 0  9996
2 56728  86.1967 289.6492 0002220  88.2954 271.8521 14.80226797 66429
IRIDIUM 178             
1 56729U 23068V   24223.56604215  .00004379  00000+0  57277-3 0  9993
2 56729  86.5794 309.6985 0002213  87.9721 272.1754 14.80228515 66424
IRIDIUM 179             
1 56730U 23068W   24223.83103480  .00004832  00000+0  63233-3 0  9996
2 56730  86.6810 314.4086 0002305  93.5029 266.6456 14.80232390 66465
